ONEWEB-0588             
1 55153U 23004P   24188.52391411  .00000021  00000+0  20443-4 0  9996
2 55153  87.9153 116.9833 0001488  86.8144 273.3158 13.18686622 76035
ONEWEB-0598             
1 55154U 23004Q   24188.45584022  .00000357  00000+0  97046-3 0  9995
2 55154  87.8970 162.5413 0001594  66.2656 293.8639 13.11416584 72747
ONEWEB-0599             
1 55155U 23004R   24188.41422759  .00000062  00000+0  12554-3 0  9994
2 55155  87.9187 147.3635 0002096  77.8863 282.2504 13.17647290 73887
ONEWEB-0614             
1 55156U 23004S   24188.45075697  .00000394  00000+0  10756-2 0  9993
2 55156  87.8972 162.5462 0002155  96.9345 263.2028 13.11417964 72683
ONEWEB-0617             
1 55158U 23004U   24188.43888031 -.00000151  00000+0 -46133-3 0  9999
2 55158  87.8968 162.5430 0001823  97.3907 262.7428 13.11418800 72706
ONEWEB-0618             
1 55159U 23004V   24188.46510404 -.00001970  00000+0 -82102-3 0  9995
2 55159  86.9057  86.5000 0011791 215.4807 144.5602 14.26814680 78093
ONEWEB-0619             
1 55160U 23004W   24188.41262419  .00000060  00000+0  12061-3 0  9996
2 55160  87.9181 147.3479 0002673  84.1452 275.9984 13.17649727 73999
